{"type":"FeatureCollection","features":[{"type":"Feature","properties":{"surface":"offroad"},"geometry":{"type":"LineString","coordinates":[[9.212121,39.315928,193.4],[9.212686,39.315937,193.5],[9.212911,39.316075,193.5],[9.213511,39.31726,200.5],[9.213462,39.317778,195.7],[9.214869,39.318359,209.3],[9.214906,39.318801,214.7],[9.215303,39.319234,221.5],[9.21572,39.320325,236.4],[9.215493,39.320321,235.9],[9.215083,39.31982,242.0],[9.214569,39.319956,245.3],[9.215022,39.320228,250.1],[9.215234,39.320755,257.3],[9.215835,39.32152,267.6],[9.216296,39.322998,288.5],[9.216286,39.32345,294.3],[9.216785,39.323837,300.7],[9.2167,39.324185,304.4],[9.216366,39.324594,310.7],[9.21673,39.325412,318.1],[9.216483,39.325867,323.3],[9.216273,39.326811,334.3],[9.216656,39.327644,345.7],[9.217144,39.327349,350.5],[9.217332,39.326989,354.7],[9.2175,39.327028,357.1],[9.217501,39.327339,360.3],[9.216784,39.32901,378.6],[9.215902,39.328802,389.6],[9.216385,39.329097,393.7],[9.216592,39.329606,400.5],[9.216762,39.329678,402.3],[9.218382,39.328452,423.0],[9.218581,39.328468,425.8],[9.218607,39.328951,430.0],[9.218206,39.329351,434.7],[9.217377,39.330836,446.7],[9.21711,39.332071,459.9],[9.217354,39.332561,466.4],[9.217251,39.333291,472.3],[9.217971,39.333748,480.7],[9.218115,39.333991,482.9],[9.217933,39.334947,493.2],[9.219444,39.336467,512.6],[9.220141,39.337757,512.4],[9.221155,39.338476,513.7],[9.221716,39.338231,514.2],[9.222033,39.338256,514.4],[9.22237,39.338943,514.4],[9.222976,39.339183,512.7],[9.223553,39.339635,513.2],[9.222638,39.340674,520.7],[9.221863,39.341127,526.8],[9.221993,39.342037,528.4],[9.221763,39.342632,534.6],[9.222572,39.343499,529.0],[9.2241,39.344241,536.6],[9.224589,39.344314,540.7],[9.227239,39.343709,569.4],[9.227393,39.343877,572.9],[9.227428,39.344528,581.7],[9.22767,39.344672,583.0],[9.228526,39.344217,588.1],[9.229535,39.343938,594.1],[9.230096,39.343575,596.6],[9.230891,39.343498,600.4],[9.230984,39.343613,602.0],[9.230745,39.344083,609.0],[9.230665,39.345012,620.9],[9.230796,39.345079,622.0],[9.231214,39.34467,631.2],[9.231475,39.345141,639.2],[9.232131,39.345607,647.3],[9.232577,39.346131,653.1],[9.233236,39.345969,654.1],[9.233938,39.345574,661.9],[9.234522,39.345567,665.3],[9.235027,39.34576,669.2],[9.23567,39.345634,672.6],[9.236126,39.346189,672.6],[9.236632,39.34643,671.7],[9.23736,39.346371,671.5],[9.237989,39.346008,671.6],[9.238657,39.345061,675.3],[9.238869,39.344202,677.4],[9.23925,39.343901,674.4],[9.239765,39.343788,671.0],[9.239863,39.344982,659.4],[9.240777,39.345678,652.1],[9.240908,39.346043,648.7],[9.24187,39.347163,638.8],[9.242072,39.347621,633.3],[9.242767,39.348257,631.1],[9.243025,39.348812,629.2],[9.244324,39.349888,626.4],[9.244311,39.350764,623.5],[9.244988,39.351617,621.3],[9.244792,39.352844,613.6],[9.245064,39.35327,615.4],[9.245813,39.353778,617.5],[9.245854,39.354318,619.6],[9.246519,39.355205,624.6],[9.246721,39.356472,627.3],[9.247528,39.356862,623.2],[9.247978,39.357633,627.6],[9.248533,39.357878,632.0],[9.249464,39.357957,638.0],[9.249657,39.358172,636.3],[9.249678,39.358424,636.4],[9.249136,39.359525,626.4],[9.249247,39.360736,625.4],[9.249573,39.360935,624.5],[9.250245,39.360797,628.4],[9.250986,39.361085,635.1],[9.250214,39.361134,641.9],[9.249576,39.361768,648.4],[9.250516,39.361578,656.5],[9.25085,39.361977,662.2],[9.25392,39.363536,658.7],[9.255587,39.363804,668.1],[9.256281,39.364763,674.6],[9.257089,39.36536,683.2],[9.258384,39.365694,698.4],[9.25879,39.366189,705.9],[9.258842,39.366903,715.4],[9.259226,39.367863,725.2],[9.260531,39.368107,737.5],[9.261102,39.368498,745.8],[9.261801,39.368493,754.6],[9.261117,39.368971,760.2],[9.262311,39.368895,772.8],[9.263063,39.369338,779.1],[9.263103,39.369943,782.5],[9.262517,39.371068,796.1],[9.262748,39.371354,801.1],[9.26386,39.371243,808.8],[9.264634,39.370615,822.3],[9.265457,39.370546,828.4],[9.265935,39.370623,832.5],[9.266522,39.371235,839.7],[9.267591,39.371354,847.5],[9.266114,39.371824,862.0],[9.265623,39.373525,881.1],[9.265669,39.374192,888.7],[9.266118,39.37515,898.1],[9.267293,39.375962,910.0],[9.267434,39.376377,914.6],[9.267451,39.377675,931.0],[9.267729,39.377908,931.5],[9.268386,39.378051,933.2],[9.269273,39.377949,931.7],[9.270783,39.377387,923.8],[9.271483,39.376967,919.0],[9.272162,39.377489,916.0],[9.272804,39.377376,915.4],[9.274081,39.37684,908.7],[9.27451,39.376503,907.2],[9.274931,39.375967,905.9],[9.275039,39.375434,903.3],[9.275452,39.37503,902.1],[9.276608,39.375914,896.1],[9.277218,39.375746,895.6],[9.277759,39.375383,892.8],[9.277984,39.375405,892.2],[9.278304,39.376519,889.7],[9.279657,39.376972,885.5],[9.280526,39.377937,879.4],[9.281412,39.37792,871.3],[9.282793,39.37692,857.2],[9.283659,39.376673,850.3],[9.28355,39.376448,848.6],[9.282717,39.376389,841.1],[9.283409,39.375849,835.2],[9.283478,39.375585,831.9],[9.283696,39.376028,829.6],[9.284168,39.375914,826.7],[9.284446,39.376262,823.4],[9.285089,39.37641,818.6],[9.285568,39.37671,813.9],[9.285858,39.37672,812.0],[9.286196,39.376524,811.9],[9.286551,39.376585,809.1],[9.286429,39.376835,807.7],[9.285833,39.377046,805.3],[9.285431,39.377425,803.4],[9.285417,39.378001,800.7],[9.286098,39.378619,796.9],[9.285283,39.379384,791.2],[9.285496,39.380144,789.2],[9.284653,39.380614,789.0],[9.285074,39.38111,787.2],[9.285202,39.381617,786.2],[9.286364,39.382153,783.0],[9.286486,39.382724,781.6],[9.286267,39.383208,782.6],[9.285967,39.38347,781.8],[9.285505,39.383601,780.8],[9.286193,39.384377,778.8],[9.28613,39.384853,778.0],[9.285485,39.385326,775.4],[9.285904,39.385992,775.0],[9.285537,39.386507,772.4],[9.286343,39.387096,768.0],[9.285925,39.38776,764.7],[9.286615,39.388656,754.6],[9.28663,39.38916,749.4],[9.286935,39.389366,745.9],[9.287489,39.389468,741.8],[9.288108,39.38996,734.8],[9.287949,39.39037,729.7],[9.287522,39.390764,725.1],[9.287446,39.391189,722.9],[9.287124,39.390687,729.0],[9.286393,39.390242,739.4],[9.283858,39.390209,772.5],[9.284364,39.389774,786.2],[9.284658,39.389079,806.6],[9.284282,39.388087,830.6],[9.283023,39.387143,851.8],[9.282819,39.385838,863.8],[9.28204,39.384206,866.3],[9.281935,39.383719,867.4],[9.282294,39.381731,876.3],[9.281726,39.380303,867.7],[9.28178,39.379311,874.9],[9.281972,39.378772,885.5],[9.281761,39.37851,887.8],[9.281122,39.378172,882.5],[9.28037,39.378073,880.9],[9.279652,39.378654,877.8],[9.279756,39.378513,876.7],[9.279213,39.37875,874.9],[9.278816,39.378568,870.3],[9.278359,39.377965,863.2],[9.277085,39.377583,854.0],[9.276668,39.378255,855.4],[9.275846,39.378514,853.4],[9.275901,39.378663,853.0],[9.276631,39.379044,854.6],[9.276743,39.379436,856.1],[9.27612,39.380766,862.4],[9.275624,39.381154,863.4],[9.274927,39.382207,862.3],[9.274013,39.382554,859.9],[9.273016,39.383204,859.8],[9.271643,39.383175,855.6],[9.271127,39.382788,853.3],[9.270472,39.382956,853.1],[9.27006,39.383242,852.1],[9.269673,39.383817,849.9],[9.269875,39.384507,847.8],[9.269831,39.385088,846.4],[9.270059,39.385581,844.8],[9.2705,39.385775,843.9],[9.272313,39.386071,838.6],[9.27261,39.386242,836.9],[9.272739,39.386498,836.0],[9.27219,39.387011,831.2],[9.27162,39.388143,835.5],[9.271734,39.388404,831.8],[9.272614,39.389227,830.5],[9.272513,39.389774,830.3],[9.271942,39.390207,837.9],[9.271889,39.39074,851.4],[9.272293,39.392216,863.0],[9.272349,39.393809,851.6],[9.2716,39.394236,852.6],[9.271283,39.394671,852.4],[9.270773,39.396209,855.3],[9.271548,39.396827,848.8],[9.272598,39.397367,849.5],[9.273097,39.397966,858.1],[9.2732,39.398227,860.8],[9.273131,39.398864,855.0],[9.273405,39.40012,844.7],[9.273418,39.400409,844.9],[9.273252,39.400531,845.4],[9.273579,39.401001,842.3],[9.274537,39.401732,842.9],[9.276705,39.402367,846.3],[9.277688,39.403364,840.5],[9.277229,39.403776,836.6],[9.275399,39.40424,824.3],[9.275069,39.404724,827.0],[9.274175,39.405511,824.9],[9.274602,39.406243,828.4],[9.274671,39.406657,836.1],[9.27538,39.407713,841.9],[9.275454,39.408643,823.9],[9.277214,39.410024,833.3],[9.278853,39.410482,820.9],[9.280268,39.411624,815.4],[9.282211,39.412324,823.1],[9.282452,39.412602,833.5],[9.282474,39.413031,840.1],[9.28266,39.413325,845.0],[9.284443,39.41283,847.1],[9.285343,39.412092,850.0],[9.286495,39.411461,859.2],[9.287033,39.411382,868.8],[9.287657,39.411041,871.1],[9.289663,39.411126,867.5],[9.290117,39.410859,871.3],[9.290543,39.41103,875.4],[9.29213,39.411058,876.9],[9.293249,39.41129,889.1],[9.293498,39.411186,890.8],[9.293771,39.410811,891.3],[9.294323,39.410565,889.1],[9.297062,39.410197,897.7],[9.298192,39.409785,865.8],[9.298865,39.409714,858.3],[9.299219,39.409816,853.8],[9.301151,39.409303,830.6],[9.30364,39.409974,811.0],[9.305834,39.41017,787.3],[9.307047,39.410095,780.1],[9.30837,39.410698,781.0],[9.309232,39.41074,785.0],[9.309802,39.411085,782.9],[9.310442,39.411722,789.8],[9.312032,39.412602,784.0],[9.311975,39.413209,787.8],[9.312484,39.413811,782.7],[9.312572,39.414328,778.1],[9.31346,39.414937,769.7],[9.313435,39.415806,760.9],[9.313612,39.416573,748.6],[9.314241,39.417751,754.2],[9.314153,39.418214,754.9],[9.31305,39.418999,737.9],[9.312561,39.418146,721.4],[9.311616,39.417598,703.5],[9.311349,39.417598,701.1],[9.309993,39.418252,687.4],[9.308774,39.41951,665.3],[9.307848,39.421031,644.6],[9.307431,39.421246,643.2],[9.307502,39.421613,633.9],[9.307485,39.421658,633.2]]}},{"type":"Feature","properties":{"surface":"asfalto"},"geometry":{"type":"LineString","coordinates":[[9.307485,39.421658,633.2],[9.307503,39.421724,632.4],[9.306659,39.422753,620.7],[9.305784,39.423309,612.5],[9.304741,39.424453,596.6],[9.304373,39.42453,594.2],[9.303997,39.42436,588.6],[9.303607,39.42477,582.2],[9.302908,39.425188,573.9],[9.302453,39.425733,565.0],[9.301674,39.425999,557.3],[9.302252,39.426341,553.0],[9.302646,39.427356,555.2],[9.303384,39.428151,556.4],[9.303595,39.428597,559.7],[9.304962,39.428234,576.6],[9.305239,39.428286,579.9],[9.305398,39.428858,581.7],[9.305167,39.429344,584.2],[9.305711,39.429816,586.0],[9.30579,39.431148,590.7],[9.306298,39.431819,592.5],[9.306957,39.432357,590.8],[9.308185,39.432796,587.8],[9.309048,39.432651,582.5],[9.309707,39.432753,578.5],[9.310571,39.432421,573.4],[9.311342,39.433073,580.5],[9.313303,39.433596,581.4],[9.314948,39.434591,588.6],[9.315253,39.435835,584.9],[9.315016,39.436618,587.5],[9.314032,39.43735,598.6],[9.31368,39.437805,604.9],[9.313798,39.43792,604.6],[9.314532,39.437913,609.4],[9.315274,39.43849,621.2],[9.31607,39.439919,632.0],[9.316264,39.440524,638.2],[9.31611,39.441072,642.2],[9.315374,39.442235,649.5],[9.315477,39.44433,656.2],[9.314594,39.445064,660.1],[9.314449,39.445468,662.2],[9.314916,39.445988,663.2],[9.316379,39.446543,666.7],[9.316925,39.446376,668.0],[9.31891,39.445195,677.4],[9.319525,39.445244,679.2],[9.319938,39.44562,680.4],[9.320032,39.449445,690.1],[9.31963,39.455622,673.3],[9.319756,39.456375,672.6],[9.320066,39.457014,672.9],[9.325473,39.463733,656.5],[9.326314,39.464511,652.3],[9.339978,39.47205,620.7],[9.341867,39.474939,622.3],[9.341887,39.477883,614.1],[9.34203,39.478296,610.5],[9.342379,39.47864,607.3],[9.353165,39.482239,568.6],[9.354317,39.482836,573.9],[9.356698,39.48456,569.7],[9.358209,39.485014,572.8],[9.358842,39.484994,573.0],[9.360808,39.484318,584.2],[9.362054,39.484161,589.1],[9.364444,39.48462,593.8],[9.366802,39.484392,590.5],[9.371013,39.482355,587.0],[9.377439,39.482895,581.6],[9.378042,39.483057,580.5],[9.379898,39.484063,578.1],[9.38071,39.485606,577.3],[9.382064,39.486774,574.6],[9.382748,39.487813,571.7],[9.382693,39.486907,574.2],[9.382627,39.48667,573.9],[9.382537,39.486731,574.5],[9.382665,39.486868,575.4],[9.382526,39.486882,574.8],[9.382637,39.486912,575.7],[9.382609,39.486662,573.6],[9.382314,39.485509,577.7],[9.381383,39.484548,582.4],[9.380947,39.483304,584.0],[9.381592,39.481007,583.9],[9.382268,39.480367,582.5],[9.383225,39.479925,585.4],[9.383922,39.479278,588.4],[9.384973,39.47917,590.4],[9.385635,39.479928,592.3],[9.387109,39.481066,589.9],[9.387401,39.481131,588.9],[9.388677,39.480403,582.1],[9.388859,39.480046,579.1],[9.388765,39.479456,575.2],[9.389771,39.479699,568.6],[9.39111,39.479345,559.0],[9.392674,39.479214,556.0],[9.393935,39.479414,559.7],[9.394676,39.479354,560.7],[9.396215,39.480048,570.0],[9.39702,39.479873,570.5],[9.39744,39.479468,568.7],[9.398529,39.479425,573.2],[9.398843,39.479069,574.1],[9.398745,39.478532,570.4],[9.398873,39.478342,569.2],[9.400118,39.478225,564.7],[9.401544,39.477528,560.3],[9.401697,39.47766,559.5],[9.401119,39.478126,548.7],[9.402547,39.477706,551.3],[9.40441,39.477828,553.9],[9.407325,39.477476,555.4],[9.409456,39.477832,556.2],[9.410325,39.477714,556.0],[9.410602,39.477391,550.4],[9.410661,39.477023,545.4],[9.410638,39.476339,539.9],[9.410426,39.475939,536.4],[9.410526,39.474345,521.7],[9.410293,39.473303,527.2],[9.410464,39.473176,524.4],[9.410898,39.47319,517.6],[9.411575,39.473327,510.7],[9.412075,39.473609,500.9],[9.412294,39.47355,499.4],[9.410226,39.471934,485.6],[9.408784,39.471178,478.3],[9.407363,39.46969,457.6],[9.407193,39.469119,450.7],[9.407386,39.468594,439.7],[9.40735,39.468194,436.9],[9.406772,39.467401,429.3],[9.40674,39.467107,428.8],[9.407233,39.465621,419.4],[9.407319,39.464501,410.7],[9.407781,39.462854,397.2],[9.408056,39.462919,393.6],[9.408134,39.463752,386.2],[9.408486,39.464291,379.8],[9.40851,39.464566,378.1],[9.408763,39.464346,370.6],[9.408707,39.463613,364.3],[9.408871,39.462553,353.8],[9.408789,39.461785,344.6],[9.408922,39.461225,338.4],[9.408696,39.461024,335.2],[9.407027,39.460714,320.8],[9.407016,39.46059,319.3],[9.408381,39.460566,310.1],[9.410402,39.460094,291.2],[9.410707,39.460479,285.2],[9.410662,39.461174,276.8],[9.41117,39.461661,268.2],[9.411263,39.4615,266.2],[9.410987,39.46105,260.8],[9.411471,39.460406,254.6],[9.411704,39.458355,230.8],[9.411712,39.45831,229.3]]}},{"type":"Feature","properties":{"surface":"offroad"},"geometry":{"type":"LineString","coordinates":[[9.411712,39.45831,229.3],[9.412505,39.457319,212.3],[9.413409,39.456778,199.4],[9.414496,39.456771,191.4],[9.415087,39.456262,182.1],[9.415212,39.45645,178.5],[9.414775,39.457158,172.7],[9.41392,39.457403,171.3],[9.413909,39.45782,169.3],[9.413487,39.458637,164.0],[9.415316,39.45861,142.9],[9.415878,39.45817,133.9],[9.416384,39.458065,128.9],[9.417263,39.457529,125.4],[9.417715,39.45678,127.1],[9.417529,39.456164,125.3],[9.417727,39.456779,133.0],[9.417722,39.456346,130.7],[9.418577,39.456383,137.8],[9.418635,39.456358,139.6]]}},{"type":"Feature","properties":{"surface":"asfalto"},"geometry":{"type":"LineString","coordinates":[[9.418635,39.456358,139.6],[9.419128,39.456107,146.2],[9.41946,39.455722,145.9],[9.41976,39.455644,146.3],[9.419989,39.455804,149.0],[9.418568,39.457973,155.6],[9.418735,39.458474,156.7],[9.418342,39.458905,159.0],[9.41811,39.459568,158.3],[9.41814,39.459893,158.4],[9.418419,39.460421,156.0],[9.419219,39.4609,158.5],[9.421273,39.461275,158.3],[9.421335,39.461245,158.5]]}},{"type":"Feature","properties":{"surface":"offroad"},"geometry":{"type":"LineString","coordinates":[[9.421335,39.461245,158.5],[9.422249,39.461399,167.1],[9.422526,39.461132,171.3],[9.422711,39.460534,177.4],[9.422374,39.460063,182.6],[9.422242,39.459522,190.1],[9.423139,39.459457,192.6],[9.42357,39.459616,193.6],[9.423748,39.459512,195.0],[9.423859,39.458381,208.1],[9.423234,39.458073,214.9],[9.42351,39.457585,217.2],[9.423486,39.456991,218.0],[9.423699,39.456702,217.3],[9.424817,39.456446,214.6],[9.426687,39.456656,217.3],[9.427251,39.456913,218.0],[9.42775,39.456648,228.9],[9.428633,39.456819,236.0],[9.429569,39.456581,248.3],[9.430356,39.456133,256.8],[9.430564,39.45564,264.2],[9.430749,39.455524,266.0],[9.431621,39.455566,275.8],[9.43243,39.455342,284.6],[9.432858,39.455057,292.4],[9.433477,39.455113,299.4],[9.433024,39.454782,306.9],[9.431634,39.454839,313.6],[9.430677,39.454511,316.9],[9.429704,39.454877,329.4],[9.429374,39.454834,332.5],[9.43069,39.454118,342.7],[9.432249,39.454164,357.8],[9.433482,39.453842,367.3],[9.433861,39.453866,371.3],[9.436121,39.455015,400.0],[9.437466,39.455348,419.5],[9.437744,39.455594,426.4],[9.437801,39.45543,426.8],[9.437472,39.455168,434.2],[9.43789,39.455188,437.5],[9.438251,39.455553,449.8],[9.438231,39.456377,462.6],[9.438457,39.45647,468.2],[9.439023,39.455882,480.2],[9.439313,39.455173,488.5],[9.438924,39.45473,497.8],[9.43739,39.453752,515.0],[9.437241,39.453463,519.7],[9.438017,39.453054,523.7],[9.440022,39.452873,544.1],[9.440635,39.452605,551.2],[9.440491,39.453004,558.3],[9.440851,39.452927,561.0],[9.441136,39.452543,565.7],[9.441088,39.451696,581.5],[9.441715,39.451458,590.4],[9.441998,39.450825,600.2],[9.442496,39.450427,606.9],[9.443494,39.450098,620.9],[9.442538,39.448838,627.1],[9.442403,39.448391,627.9],[9.44187,39.447882,623.5],[9.4409,39.447808,616.1],[9.440625,39.447621,615.3],[9.440405,39.447192,607.9],[9.439705,39.447145,607.7],[9.439396,39.446814,601.2],[9.439712,39.446097,593.2],[9.439791,39.445471,589.6],[9.439518,39.444697,583.7],[9.440438,39.443606,570.4],[9.440519,39.442511,566.9],[9.441094,39.442145,566.7],[9.442287,39.441755,577.2],[9.442841,39.441442,579.5],[9.443075,39.441135,576.4],[9.443052,39.440927,574.9],[9.44152,39.439832,563.5],[9.441202,39.438881,555.5],[9.441468,39.43767,548.4],[9.441961,39.436622,542.7],[9.442516,39.436221,546.4],[9.44348,39.436053,552.4],[9.44364,39.434919,538.9],[9.443221,39.434555,534.1],[9.443326,39.434961,525.8],[9.442724,39.435363,519.9],[9.442543,39.434602,511.2],[9.442652,39.433996,502.8],[9.443294,39.43317,491.4],[9.44336,39.432475,484.4],[9.443685,39.432061,476.9],[9.443669,39.431605,475.2],[9.444589,39.430167,458.7],[9.444842,39.429971,460.4],[9.445303,39.429948,460.8],[9.445654,39.430127,465.7],[9.446401,39.430042,462.3],[9.447054,39.430223,461.5],[9.447505,39.430058,459.1],[9.448012,39.429342,449.3],[9.448068,39.427944,429.0],[9.44824,39.427709,427.9],[9.447724,39.427276,416.4],[9.448107,39.427164,416.7],[9.44877,39.426528,415.0],[9.449443,39.426583,416.5],[9.449454,39.426079,412.2],[9.450053,39.425396,403.4],[9.451315,39.425269,397.3],[9.450949,39.424913,394.7],[9.451003,39.424607,392.0],[9.451635,39.424201,390.3],[9.452432,39.423399,389.7],[9.45269,39.42228,385.0],[9.453318,39.421656,378.9],[9.454391,39.421101,384.5],[9.455371,39.420956,396.0],[9.458677,39.419031,364.8],[9.460801,39.418193,356.0],[9.461152,39.418205,354.6],[9.461719,39.418744,354.0],[9.462846,39.418911,352.7],[9.463547,39.418836,349.3],[9.464149,39.419082,352.8],[9.465559,39.419005,351.7],[9.467747,39.419857,344.4],[9.469602,39.420186,341.7],[9.470198,39.420595,340.4],[9.471197,39.420833,342.9],[9.471428,39.420083,350.0],[9.472321,39.418972,358.0],[9.472395,39.418466,358.6],[9.472835,39.418189,360.9],[9.473299,39.418129,364.4],[9.473691,39.41752,369.1],[9.473263,39.417042,375.4],[9.47374,39.416876,381.3],[9.474105,39.416287,390.7],[9.474996,39.416036,403.9],[9.475138,39.415294,413.8],[9.476103,39.414909,425.0],[9.476741,39.413943,455.0],[9.476819,39.413582,459.4],[9.476697,39.413382,461.7],[9.476958,39.41292,471.4],[9.477484,39.412613,466.9],[9.477567,39.412341,464.8],[9.478065,39.412241,460.2],[9.478454,39.411492,459.3],[9.478778,39.411202,460.5],[9.478863,39.410797,465.9],[9.480067,39.409863,476.0],[9.480267,39.409564,474.4],[9.479798,39.409027,477.2],[9.479383,39.409262,479.8],[9.477163,39.409678,481.2],[9.476386,39.409973,482.3],[9.475047,39.409859,479.8],[9.47412,39.409567,479.9],[9.473533,39.408306,488.5],[9.473924,39.407867,491.1],[9.473986,39.407244,492.9],[9.474926,39.407005,502.1],[9.475263,39.406391,507.6],[9.475813,39.405859,514.5],[9.477651,39.405326,538.1],[9.478582,39.404464,555.0],[9.479956,39.404354,566.6],[9.481168,39.405019,571.8],[9.4817,39.405129,575.3],[9.482094,39.405024,578.9],[9.482434,39.404545,580.5],[9.482497,39.403239,591.2],[9.483874,39.403094,598.5],[9.484193,39.403552,600.6],[9.484041,39.403439,600.0],[9.484286,39.404254,597.9],[9.484744,39.403702,602.2],[9.484881,39.403318,603.0],[9.485456,39.403071,598.8],[9.485634,39.402745,591.7],[9.485809,39.403154,583.3],[9.486077,39.403372,579.3],[9.486171,39.402351,559.0],[9.4865,39.402955,549.0],[9.486606,39.401985,532.2],[9.486733,39.401731,527.5],[9.487574,39.401078,509.0],[9.487548,39.400708,501.0],[9.487813,39.401075,493.7],[9.487843,39.400492,478.9],[9.488128,39.400541,473.6],[9.488246,39.40085,468.8],[9.488365,39.400853,468.5],[9.488455,39.400502,461.2],[9.488229,39.400147,454.4],[9.488324,39.400089,451.7],[9.488842,39.400545,445.9],[9.488763,39.399633,427.5],[9.488971,39.399611,424.3],[9.489073,39.400087,419.0],[9.489561,39.4007,411.9],[9.489579,39.40103,407.8],[9.489802,39.400551,402.7],[9.489683,39.399896,392.3],[9.489922,39.399435,384.6],[9.490044,39.399493,385.1],[9.489973,39.399982,382.6],[9.490556,39.400367,374.2],[9.490461,39.400789,367.7],[9.490946,39.400196,361.1],[9.490547,39.399828,355.3],[9.491161,39.400018,349.6],[9.491279,39.400296,344.9],[9.490926,39.401189,336.7],[9.492182,39.39987,311.7],[9.491904,39.401383,303.1],[9.493012,39.400076,276.3],[9.49314,39.39966,269.2],[9.493069,39.399364,265.0],[9.493253,39.399401,263.6],[9.493415,39.400074,254.2],[9.493523,39.400083,254.7],[9.493481,39.399209,245.4],[9.493003,39.398772,238.8],[9.494012,39.398238,228.0],[9.494215,39.397966,222.9],[9.494345,39.397367,217.2],[9.494124,39.396982,211.1],[9.494475,39.396687,207.3],[9.49487,39.395756,197.9],[9.49524,39.395407,198.7],[9.494737,39.394738,188.0],[9.49472,39.394523,184.4],[9.495179,39.394667,175.5],[9.495846,39.394588,167.7],[9.496889,39.393796,151.9],[9.497279,39.393325,152.9],[9.497193,39.392566,158.5],[9.496895,39.392184,152.2],[9.497055,39.391725,150.2],[9.497673,39.390897,145.8],[9.498178,39.390663,148.7],[9.498631,39.390716,149.9],[9.498796,39.390519,147.4],[9.498685,39.389511,140.8],[9.49819,39.389123,140.3],[9.497861,39.388171,133.2],[9.497997,39.387302,128.3],[9.498599,39.386805,129.1],[9.499221,39.385824,129.5],[9.49964,39.38559,126.2],[9.499742,39.385192,121.4],[9.50006,39.384992,120.9],[9.500681,39.384111,126.5],[9.501859,39.383255,122.3],[9.503153,39.381479,117.9],[9.504767,39.381882,116.6],[9.505938,39.381947,118.0],[9.50686,39.381818,118.2],[9.508228,39.381954,126.3],[9.509737,39.381645,133.0],[9.511115,39.38161,135.8],[9.511601,39.381263,133.7],[9.512467,39.380055,122.7],[9.513051,39.379616,120.3],[9.513416,39.378949,116.7],[9.51411,39.378767,115.3],[9.514831,39.37767,110.6],[9.515717,39.377274,105.0],[9.51633,39.376576,102.5],[9.516593,39.376674,100.5],[9.516819,39.376989,100.8],[9.517961,39.380267,110.8],[9.518869,39.381228,123.1],[9.520036,39.381779,129.8],[9.520606,39.382372,138.8],[9.522271,39.382756,150.6],[9.523009,39.382192,139.3],[9.523304,39.382499,137.0],[9.523642,39.38258,135.5],[9.524844,39.382479,121.9],[9.526314,39.382104,120.5],[9.527483,39.382144,126.6],[9.529774,39.380552,118.7],[9.530887,39.37942,109.4],[9.531263,39.37855,102.6],[9.533212,39.377335,90.9],[9.534364,39.374665,74.7],[9.535299,39.374132,72.5],[9.536529,39.373967,68.2],[9.536857,39.37374,71.8],[9.537464,39.370426,62.9],[9.537395,39.36935,62.2],[9.536804,39.368879,60.4],[9.533701,39.368381,57.0]]}}],"bbox":[9.212121,39.315907,9.537488,39.487813]}